{
  "type": "FeatureCollection",
  "features": [
    {
      "type": "Feature",
      "properties": {
        "norad_id": 34010,
        "name": "COSMOS 2251 DEB",
        "group": "cosmos-2251-debris",
        "lat": -44.99417812845432,
        "lon": 111.93017472116428,
        "alt_km": 517.3583854064609,
        "timestamp": "2025-12-16T13:52:37.915574+00:00",
        "meta_object_name": "COSMOS 2251 DEB",
        "meta_object_id": "1993-036GV",
        "meta_epoch": "2025-12-15T21:04:35.812992",
        "meta_mean_motion": 15.19241189,
        "meta_eccentricity": 0.00046877,
        "meta_inclination": 73.9985,
        "meta_ra_of_asc_node": 276.7252,
        "meta_arg_of_pericenter": 64.6956,
        "meta_mean_anomaly": 295.4726,
        "meta_ephemeris_type": 0,
        "meta_classification_type": "U",
        "meta_norad_cat_id": 34010,
        "meta_element_set_no": 999,
        "meta_rev_at_epoch": 89333,
        "meta_bstar": 0.0032239739,
        "meta_mean_motion_dot": 0.00068587,
        "meta_mean_motion_ddot": 0,
        "tle_line1": "1 34010U 93036GV  25349.87819228  .00068587  00000+0  32240-2 0  9993",
        "tle_line2": "2 34010  73.9985 276.7252 0004687  64.6956 295.4726 15.19241189893335"
      },
      "geometry": {
        "type": "Point",
        "coordinates": [
          111.93017472116428,
          -44.99417812845432
        ]
      }
    },
    {
      "type": "Feature",
      "properties": {
        "norad_id": 34011,
        "name": "COSMOS 2251 DEB",
        "group": "cosmos-2251-debris",
        "lat": 12.901403828964959,
        "lon": -33.20775470478787,
        "alt_km": 731.73622667177,
        "timestamp": "2025-12-16T13:52:37.915596+00:00",
        "meta_object_name": "COSMOS 2251 DEB",
        "meta_object_id": "1993-036GW",
        "meta_epoch": "2025-12-15T07:50:26.057472",
        "meta_mean_motion": 14.41783741,
        "meta_eccentricity": 0.00357199,
        "meta_inclination": 74.0146,
        "meta_ra_of_asc_node": 325.3488,
        "meta_arg_of_pericenter": 48.0641,
        "meta_mean_anomaly": 312.355,
        "meta_ephemeris_type": 0,
        "meta_classification_type": "U",
        "meta_norad_cat_id": 34011,
        "meta_element_set_no": 999,
        "meta_rev_at_epoch": 87953,
        "meta_bstar": 0.00061359749,
        "meta_mean_motion_dot": 1.993e-05,
        "meta_mean_motion_ddot": 0,
        "tle_line1": "1 34011U 93036GW  25349.32669048  .00001993  00000+0  61360-3 0  9991",
        "tle_line2": "2 34011  74.0146 325.3488 0035719  48.0641 312.3550 14.41783741879535"
      },
      "geometry": {
        "type": "Point",
        "coordinates": [
          -33.20775470478787,
          12.901403828964959
        ]
      }
    },
    {
      "type": "Feature",
      "properties": {
        "norad_id": 34014,
        "name": "COSMOS 2251 DEB",
        "group": "cosmos-2251-debris",
        "lat": 22.907160637278693,
        "lon": -79.80698399249174,
        "alt_km": 627.0806080630036,
        "timestamp": "2025-12-16T13:52:37.915608+00:00",
        "meta_object_name": "COSMOS 2251 DEB",
        "meta_object_id": "1993-036GZ",
        "meta_epoch": "2025-12-15T20:06:24.210144",
        "meta_mean_motion": 14.73179726,
        "meta_eccentricity": 0.00371515,
        "meta_inclination": 74.0169,
        "meta_ra_of_asc_node": 274.6805,
        "meta_arg_of_pericenter": 53.5086,
        "meta_mean_anomaly": 5.437,
        "meta_ephemeris_type": 0,
        "meta_classification_type": "U",
        "meta_norad_cat_id": 34014,
        "meta_element_set_no": 999,
        "meta_rev_at_epoch": 89349,
        "meta_bstar": 0.00062625205,
        "meta_mean_motion_dot": 4.053e-05,
        "meta_mean_motion_ddot": 0,
        "tle_line1": "1 34014U 93036GZ  25349.83778021  .00004053  00000+0  62625-3 0  9997",
        "tle_line2": "2 34014  74.0169 274.6805 0037151  53.5086   5.4370 14.73179726893496"
      },
      "geometry": {
        "type": "Point",
        "coordinates": [
          -79.80698399249174,
          22.907160637278693
        ]
      }
    },
    {
      "type": "Feature",
      "properties": {
        "norad_id": 34015,
        "name": "COSMOS 2251 DEB",
        "group": "cosmos-2251-debris",
        "lat": -35.64649262836605,
        "lon": 140.23421438623512,
        "alt_km": 694.061028698211,
        "timestamp": "2025-12-16T13:52:37.915619+00:00",
        "meta_object_name": "COSMOS 2251 DEB",
        "meta_object_id": "1993-036HA",
        "meta_epoch": "2025-12-15T22:09:20.783808",
        "meta_mean_motion": 14.60295602,
        "meta_eccentricity": 0.00209651,
        "meta_inclination": 74.0229,
        "meta_ra_of_asc_node": 153.3421,
        "meta_arg_of_pericenter": 250.0579,
        "meta_mean_anomaly": 230.2097,
        "meta_ephemeris_type": 0,
        "meta_classification_type": "U",
        "meta_norad_cat_id": 34015,
        "meta_element_set_no": 999,
        "meta_rev_at_epoch": 88577,
        "meta_bstar": 0.0010820777,
        "meta_mean_motion_dot": 5.216e-05,
        "meta_mean_motion_ddot": 0,
        "tle_line1": "1 34015U 93036HA  25349.92315722  .00005216  00000+0  10821-2 0  9995",
        "tle_line2": "2 34015  74.0229 153.3421 0020965 250.0579 230.2097 14.60295602885771"
      },
      "geometry": {
        "type": "Point",
        "coordinates": [
          140.23421438623512,
          -35.64649262836605
        ]
      }
    },
    {
      "type": "Feature",
      "properties": {
        "norad_id": 34018,
        "name": "COSMOS 2251 DEB",
        "group": "cosmos-2251-debris",
        "lat": 73.86827508364779,
        "lon": 175.21543876726315,
        "alt_km": 785.2901981873665,
        "timestamp": "2025-12-16T13:52:37.915629+00:00",
        "meta_object_name": "COSMOS 2251 DEB",
        "meta_object_id": "1993-036HD",
        "meta_epoch": "2025-12-15T13:13:17.001408",
        "meta_mean_motion": 13.81075232,
        "meta_eccentricity": 0.02635616,
        "meta_inclination": 73.878,
        "meta_ra_of_asc_node": 87.332,
        "meta_arg_of_pericenter": 122.6838,
        "meta_mean_anomaly": 262.9336,
        "meta_ephemeris_type": 0,
        "meta_classification_type": "U",
        "meta_norad_cat_id": 34018,
        "meta_element_set_no": 999,
        "meta_rev_at_epoch": 84696,
        "meta_bstar": 0.00041742623,
        "meta_mean_motion_dot": 5.52e-06,
        "meta_mean_motion_ddot": 0,
        "tle_line1": "1 34018U 93036HD  25349.55089122  .00000552  00000+0  41743-3 0  9995",
        "tle_line2": "2 34018  73.8780  87.3320 0263561 122.6838 262.9336 13.81075232846963"
      },
      "geometry": {
        "type": "Point",
        "coordinates": [
          175.21543876726315,
          73.86827508364779
        ]
      }
    },
    {
      "type": "Feature",
      "properties": {
        "norad_id": 34019,
        "name": "COSMOS 2251 DEB",
        "group": "cosmos-2251-debris",
        "lat": -44.27415288927499,
        "lon": -120.02315990032879,
        "alt_km": 740.0932459880623,
        "timestamp": "2025-12-16T13:52:37.915639+00:00",
        "meta_object_name": "COSMOS 2251 DEB",
        "meta_object_id": "1993-036HE",
        "meta_epoch": "2025-12-15T20:38:17.278944",
        "meta_mean_motion": 14.33953105,
        "meta_eccentricity": 0.00626039,
        "meta_inclination": 73.9545,
        "meta_ra_of_asc_node": 45.0018,
        "meta_arg_of_pericenter": 225.7838,
        "meta_mean_anomaly": 254.1657,
        "meta_ephemeris_type": 0,
        "meta_classification_type": "U",
        "meta_norad_cat_id": 34019,
        "meta_element_set_no": 999,
        "meta_rev_at_epoch": 87565,
        "meta_bstar": 0.00064670233,
        "meta_mean_motion_dot": 1.817e-05,
        "meta_mean_motion_ddot": 0,
        "tle_line1": "1 34019U 93036HE  25349.85992221  .00001817  00000+0  64670-3 0  9991",
        "tle_line2": "2 34019  73.9545  45.0018 0062603 225.7838 254.1657 14.33953105875657"
      },
      "geometry": {
        "type": "Point",
        "coordinates": [
          -120.02315990032879,
          -44.27415288927499
        ]
      }
    },
    {
      "type": "Feature",
      "properties": {
        "norad_id": 34021,
        "name": "COSMOS 2251 DEB",
        "group": "cosmos-2251-debris",
        "lat": -6.232448367182254,
        "lon": -55.58714600313463,
        "alt_km": 726.5170327906671,
        "timestamp": "2025-12-16T13:52:37.915649+00:00",
        "meta_object_name": "COSMOS 2251 DEB",
        "meta_object_id": "1993-036HG",
        "meta_epoch": "2025-12-15T19:29:47.476320",
        "meta_mean_motion": 14.49960042,
        "meta_eccentricity": 0.00209319,
        "meta_inclination": 74.036,
        "meta_ra_of_asc_node": 124.0589,
        "meta_arg_of_pericenter": 267.8163,
        "meta_mean_anomaly": 242.7251,
        "meta_ephemeris_type": 0,
        "meta_classification_type": "U",
        "meta_norad_cat_id": 34021,
        "meta_element_set_no": 999,
        "meta_rev_at_epoch": 88674,
        "meta_bstar": 0.00039091221,
        "meta_mean_motion_dot": 1.489e-05,
        "meta_mean_motion_ddot": 0,
        "tle_line1": "1 34021U 93036HG  25349.81235505  .00001489  00000+0  39091-3 0  9999",
        "tle_line2": "2 34021  74.0360 124.0589 0020931 267.8163 242.7251 14.49960042886744"
      },
      "geometry": {
        "type": "Point",
        "coordinates": [
          -55.58714600313463,
          -6.232448367182254
        ]
      }
    }
  ]
}